{
    "links": {
        "self": "http://www.neowsapp.com/rest/v1/neo/3694046?api_key=iIulBulltgU6a56xZRHN4H3l9WmuAYTsLGpBGhQ2"
    },
    "id": "3694046",
    "neo_reference_id": "3694046",
    "name": "(2014 US33)",
    "designation": "2014 US33",
    "nasa_jpl_url": "http://ssd.jpl.nasa.gov/sbdb.cgi?sstr=3694046",
    "absolute_magnitude_h": 25.1,
    "estimated_diameter": {
        "kilometers": {
            "estimated_diameter_min": 0.0253837029,
            "estimated_diameter_max": 0.0567596853
        },
        "meters": {
            "estimated_diameter_min": 25.3837029364,
            "estimated_diameter_max": 56.7596852866
        },
        "miles": {
            "estimated_diameter_min": 0.0157726969,
            "estimated_diameter_max": 0.0352688224
        },
        "feet": {
            "estimated_diameter_min": 83.279867942,
            "estimated_diameter_max": 186.2194458756
        }
    },
    "is_potentially_hazardous_asteroid": false,
    "close_approach_data": [
        {
            "close_approach_date": "2014-05-22",
            "close_approach_date_full": "2014-May-22 18:33",
            "epoch_date_close_approach": 1400783580000,
            "relative_velocity": {
                "kilometers_per_second": "9.318043441",
                "kilometers_per_hour": "33544.9563877573",
                "miles_per_hour": "20843.5313732706"
            },
            "miss_distance": {
                "astronomical": "0.3934191737",
                "lunar": "153.0400585693",
                "kilometers": "58854670.402680019",
                "miles": "36570596.3871375022"
            },
            "orbiting_body": "Earth"
        },
        {
            "close_approach_date": "2014-10-09",
            "close_approach_date_full": "2014-Oct-09 22:26",
            "epoch_date_close_approach": 1412893560000,
            "relative_velocity": {
                "kilometers_per_second": "12.3606797882",
                "kilometers_per_hour": "44498.4472376752",
                "miles_per_hour": "27649.604618321"
            },
            "miss_distance": {
                "astronomical": "0.1044190248",
                "lunar": "40.6190006472",
                "kilometers": "15620863.697557176",
                "miles": "9706354.6120179888"
            },
            "orbiting_body": "Earth"
        },
        {
            "close_approach_date": "2016-05-23",
            "close_approach_date_full": "2016-May-23 03:59",
            "epoch_date_close_approach": 1463975940000,
            "relative_velocity": {
                "kilometers_per_second": "21.2329208564",
                "kilometers_per_hour": "76438.5150830584",
                "miles_per_hour": "47495.9206636926"
            },
            "miss_distance": {
                "astronomical": "0.4826226196",
                "lunar": "187.7401990244",
                "kilometers": "72199315.905980252",
                "miles": "44862574.5987493976"
            },
            "orbiting_body": "Earth"
        }
    ],
    "orbital_data": {
        "orbit_id": "4",
        "orbit_determination_date": "2017-04-06 08:38:02",
        "first_observation_date": "2014-10-22",
        "last_observation_date": "2014-10-26",
        "data_arc_in_days": 4,
        "observations_used": 29,
        "orbit_uncertainty": "9",
        "minimum_orbit_intersection": ".102196",
        "jupiter_tisserand_invariant": "4.363",
        "epoch_osculation": "2456953.5",
        "eccentricity": ".3767127339014431",
        "semi_major_axis": "1.526535259905573",
        "inclination": "17.92539270223287",
        "ascending_node_longitude": "209.2834895088341",
        "orbital_period": "688.9039691949354",
        "perihelion_distance": ".9514699887495944",
        "perihelion_argument": "113.1907465214743",
        "aphelion_distance": "2.101600531061551",
        "perihelion_time": "2456892.820026260169",
        "mean_anomaly": "31.70948568037334",
        "mean_motion": ".5225692057206492",
        "equinox": "J2000",
        "orbit_class": {
            "orbit_class_type": "APO",
            "orbit_class_description": "Near-Earth asteroid orbits which cross the Earth’s orbit similar to that of 1862 Apollo",
            "orbit_class_range": "a (semi-major axis) > 1.0 AU; q (perihelion) < 1.017 AU"
        }
    },
    "is_sentry_object": false
}